[
  {
    "ORDINAL": "1",
    "COMMENT": "GENERATED VIA SPACETRACK.ORG API",
    "ORIGINATOR": "18 SPCS",
    "NORAD_CAT_ID": "274",
    "OBJECT_NAME": "MIDAS 5 DEB",
    "OBJECT_TYPE": "DEBRIS",
    "CLASSIFICATION_TYPE": "U",
    "INTLDES": "62010D",
    "EPOCH": "2023-02-02 18:25:31",
    "EPOCH_MICROSECONDS": "719072",
    "MEAN_MOTION": "9.39399409",
    "ECCENTRICITY": "0.0361353",
    "INCLINATION": "86.6677",
    "RA_OF_ASC_NODE": "152.0284",
    "ARG_OF_PERICENTER": "229.5793",
    "MEAN_ANOMALY": "127.306",
    "EPHEMERIS_TYPE": "0",
    "ELEMENT_SET_NO": "999",
    "REV_AT_EPOCH": "8564",
    "BSTAR": "-0.0022226",
    "MEAN_MOTION_DOT": "-0.00000008",
    "MEAN_MOTION_DDOT": "0",
    "FILE": "3768432",
    "TLE_LINE0": "0 MIDAS 5 DEB",
    "TLE_LINE1": "1   274U 62010D   23033.76772823 -.00000008  00000-0 -22226-2 0  9991",
    "TLE_LINE2": "2   274  86.6677 152.0284 0361353 229.5793 127.3060  9.39399409 85642",
    "OBJECT_ID": "1962-010D",
    "OBJECT_NUMBER": "274",
    "SEMIMAJOR_AXIS": "9487.861",
    "PERIOD": "153.289",
    "APOGEE": "3452.573",
    "PERIGEE": "2766.879",
    "DECAYED": "0"
  },
  {
    "ORDINAL": "1",
    "COMMENT": "GENERATED VIA SPACETRACK.ORG API",
    "ORIGINATOR": "18 SPCS",
    "NORAD_CAT_ID": "275",
    "OBJECT_NAME": "THOR ABLESTAR DEB",
    "OBJECT_TYPE": "DEBRIS",
    "CLASSIFICATION_TYPE": "U",
    "INTLDES": "61015CP",
    "EPOCH": "2001-12-01 14:26:40",
    "EPOCH_MICROSECONDS": "647839",
    "MEAN_MOTION": "16.22003561",
    "ECCENTRICITY": "0.0009517",
    "INCLINATION": "66.7016",
    "RA_OF_ASC_NODE": "150.2189",
    "ARG_OF_PERICENTER": "302.7429",
    "MEAN_ANOMALY": "57.303",
    "EPHEMERIS_TYPE": "0",
    "ELEMENT_SET_NO": "999",
    "REV_AT_EPOCH": "10128",
    "BSTAR": "0.013683",
    "MEAN_MOTION_DOT": "0.31140594",
    "MEAN_MOTION_DDOT": "0.0000062614",
    "FILE": "6387",
    "TLE_LINE0": "0 THOR ABLESTAR DEB",
    "TLE_LINE1": "1   275U 61015CP  01335.60185935 +.31140594 +62614-5 +13683-1 0  9999",
    "TLE_LINE2": "2   275 066.7016 150.2189 0009517 302.7429 057.3030 16.22003561101283",
    "OBJECT_ID": "1961-015CP",
    "OBJECT_NUMBER": "275",
    "SEMIMAJOR_AXIS": "6592.259",
    "PERIOD": "88.779",
    "APOGEE": "220.398",
    "PERIGEE": "207.850",
    "DECAYED": "1"
  },
  {
    "ORDINAL": "1",
    "COMMENT": "GENERATED VIA SPACETRACK.ORG API",
    "ORIGINATOR": "18 SPCS",
    "NORAD_CAT_ID": "276",
    "OBJECT_NAME": "FTV 1154",
    "OBJECT_TYPE": "PAYLOAD",
    "CLASSIFICATION_TYPE": "U",
    "INTLDES": "62011A",
    "EPOCH": "1962-05-22 17:10:16",
    "EPOCH_MICROSECONDS": "841279",
    "MEAN_MOTION": "16.34562408",
    "ECCENTRICITY": "0.0000362",
    "INCLINATION": "73.558",
    "RA_OF_ASC_NODE": "207.2731",
    "ARG_OF_PERICENTER": "63.4595",
    "MEAN_ANOMALY": "231.9827",
    "EPHEMERIS_TYPE": "0",
    "ELEMENT_SET_NO": "999",
    "REV_AT_EPOCH": "552",
    "BSTAR": "0",
    "MEAN_MOTION_DOT": "0.03426992",
    "MEAN_MOTION_DDOT": "0",
    "FILE": "33908",
    "TLE_LINE0": "0 FTV 1154",
    "TLE_LINE1": "1 00276U 62011  A 62142.71547270  .03426992 +00000-0 +00000-0 0  9998",
    "TLE_LINE2": "2 00276 073.5580 207.2731 0000362 063.4595 231.9827 16.34562408005523",
    "OBJECT_ID": "1962-011A",
    "OBJECT_NUMBER": "276",
    "SEMIMAJOR_AXIS": "6558.449",
    "PERIOD": "88.097",
    "APOGEE": "180.551",
    "PERIGEE": "180.076",
    "DECAYED": "1"
  },
  {
    "ORDINAL": "1",
    "COMMENT": "GENERATED VIA SPACETRACK.ORG API",
    "ORIGINATOR": "18 SPCS",
    "NORAD_CAT_ID": "281",
    "OBJECT_NAME": "COSMOS 3 (SPUTNIK 13)",
    "OBJECT_TYPE": "PAYLOAD",
    "CLASSIFICATION_TYPE": "U",
    "INTLDES": "62013A",
    "EPOCH": "1962-10-13 16:33:52",
    "EPOCH_MICROSECONDS": "130016",
    "MEAN_MOTION": "16.18663306",
    "ECCENTRICITY": "0.0045683",
    "INCLINATION": "48.9525",
    "RA_OF_ASC_NODE": "18.5667",
    "ARG_OF_PERICENTER": "187.6986",
    "MEAN_ANOMALY": "80.4247",
    "EPHEMERIS_TYPE": "0",
    "ELEMENT_SET_NO": "999",
    "REV_AT_EPOCH": "2695",
    "BSTAR": "0",
    "MEAN_MOTION_DOT": "0.01346258",
    "MEAN_MOTION_DDOT": "0.057778",
    "FILE": "33908",
    "TLE_LINE0": "0 COSMOS 3 (SPUTNIK 13)",
    "TLE_LINE1": "1 00281U 62013  A 62286.69018669  .01346258 +57778-1 +00000-0 0  9996",
    "TLE_LINE2": "2 00281 048.9525 018.5667 0045683 187.6986 080.4247 16.18663306026957",
    "OBJECT_ID": "1962-013A",
    "OBJECT_NUMBER": "281",
    "SEMIMAJOR_AXIS": "6601.325",
    "PERIOD": "88.962",
    "APOGEE": "253.347",
    "PERIGEE": "193.033",
    "DECAYED": "1"
  },
  {
    "ORDINAL": "1",
    "COMMENT": "GENERATED VIA SPACETRACK.ORG API",
    "ORIGINATOR": "18 SPCS",
    "NORAD_CAT_ID": "283",
    "OBJECT_NAME": "SL-7 R/B",
    "OBJECT_TYPE": "ROCKET BODY",
    "CLASSIFICATION_TYPE": "U",
    "INTLDES": "62013B",
    "EPOCH": "1962-07-31 15:46:35",
    "EPOCH_MICROSECONDS": "84927",
    "MEAN_MOTION": "16.08890929",
    "ECCENTRICITY": "0.0067463",
    "INCLINATION": "48.9625",
    "RA_OF_ASC_NODE": "52.3426",
    "ARG_OF_PERICENTER": "200.0339",
    "MEAN_ANOMALY": "159.6998",
    "EPHEMERIS_TYPE": "0",
    "ELEMENT_SET_NO": "999",
    "REV_AT_EPOCH": "1540",
    "BSTAR": "0",
    "MEAN_MOTION_DOT": "0.01068171",
    "MEAN_MOTION_DDOT": "0",
    "FILE": "33908",
    "TLE_LINE0": "0 SL-7 R/B",
    "TLE_LINE1": "1 00283U 62013  B 62212.65735052  .01068171 +00000-0 +00000-0 0  9995",
    "TLE_LINE2": "2 00283 048.9625 052.3426 0067463 200.0339 159.6998 16.08890929015403",
    "OBJECT_ID": "1962-013B",
    "OBJECT_NUMBER": "283",
    "SEMIMAJOR_AXIS": "6628.029",
    "PERIOD": "89.503",
    "APOGEE": "294.608",
    "PERIGEE": "205.179",
    "DECAYED": "1"
  },
  {
    "ORDINAL": "1",
    "COMMENT": "GENERATED VIA SPACETRACK.ORG API",
    "ORIGINATOR": "18 SPCS",
    "NORAD_CAT_ID": "284",
    "OBJECT_NAME": "SL-3 R/B",
    "OBJECT_TYPE": "ROCKET BODY",
    "CLASSIFICATION_TYPE": "U",
    "INTLDES": "62014B",
    "EPOCH": "1962-06-16 14:35:13",
    "EPOCH_MICROSECONDS": "531200",
    "MEAN_MOTION": "16.31119568",
    "ECCENTRICITY": "0",
    "INCLINATION": "64.918",
    "RA_OF_ASC_NODE": "213.8529",
    "ARG_OF_PERICENTER": "142.615",
    "MEAN_ANOMALY": "171.1398",
    "EPHEMERIS_TYPE": "0",
    "ELEMENT_SET_NO": "999",
    "REV_AT_EPOCH": "820",
    "BSTAR": "0",
    "MEAN_MOTION_DOT": "0.02522272",
    "MEAN_MOTION_DDOT": "0.018113",
    "FILE": "33908",
    "TLE_LINE0": "0 SL-3 R/B",
    "TLE_LINE1": "1 00284U 62014  B 62167.60779550  .02522272 +18113-1 +00000-0 0  9995",
    "TLE_LINE2": "2 00284 064.9180 213.8529 0000000 142.6150 171.1398 16.31119568008204",
    "OBJECT_ID": "1962-014B",
    "OBJECT_NUMBER": "284",
    "SEMIMAJOR_AXIS": "6567.674",
    "PERIOD": "88.283",
    "APOGEE": "189.539",
    "PERIGEE": "189.539",
    "DECAYED": "1"
  },
  {
    "ORDINAL": "1",
    "COMMENT": "GENERATED VIA SPACETRACK.ORG API",
    "ORIGINATOR": "18 SPCS",
    "NORAD_CAT_ID": "285",
    "OBJECT_NAME": "ARIEL 1 (UK-1)",
    "OBJECT_TYPE": "PAYLOAD",
    "CLASSIFICATION_TYPE": "U",
    "INTLDES": "62015A",
    "EPOCH": "1976-05-23 23:54:17",
    "EPOCH_MICROSECONDS": "677151",
    "MEAN_MOTION": "16.31702762",
    "ECCENTRICITY": "0.0004322",
    "INCLINATION": "53.7584",
    "RA_OF_ASC_NODE": "107.063",
    "ARG_OF_PERICENTER": "173.6423",
    "MEAN_ANOMALY": "186.4641",
    "EPHEMERIS_TYPE": "0",
    "ELEMENT_SET_NO": "999",
    "REV_AT_EPOCH": "75987",
    "BSTAR": "0",
    "MEAN_MOTION_DOT": "0.03716849",
    "MEAN_MOTION_DDOT": "0",
    "FILE": "33992",
    "TLE_LINE0": "0 ARIEL 1 (UK-1)",
    "TLE_LINE1": "1 00285U 62015  A 76144.99603793  .03716849 +00000-0 +00000-0 0  9995",
    "TLE_LINE2": "2 00285 053.7584 107.0630 0004322 173.6423 186.4641 16.31702762759874",
    "OBJECT_ID": "1962-015A",
    "OBJECT_NUMBER": "285",
    "SEMIMAJOR_AXIS": "6566.109",
    "PERIOD": "88.251",
    "APOGEE": "190.812",
    "PERIGEE": "185.136",
    "DECAYED": "1"
  },
  {
    "ORDINAL": "1",
    "COMMENT": "GENERATED VIA SPACETRACK.ORG API",
    "ORIGINATOR": "18 SPCS",
    "NORAD_CAT_ID": "288",
    "OBJECT_NAME": "DELTA 1 R/B",
    "OBJECT_TYPE": "ROCKET BODY",
    "CLASSIFICATION_TYPE": "U",
    "INTLDES": "62015B",
    "EPOCH": "1971-04-27 21:17:37",
    "EPOCH_MICROSECONDS": "71168",
    "MEAN_MOTION": "16.279158",
    "ECCENTRICITY": "0.000568",
    "INCLINATION": "53.783",
    "RA_OF_ASC_NODE": "64.7962",
    "ARG_OF_PERICENTER": "45.2931",
    "MEAN_ANOMALY": "314.8538",
    "EPHEMERIS_TYPE": "0",
    "ELEMENT_SET_NO": "999",
    "REV_AT_EPOCH": "47987",
    "BSTAR": "0",
    "MEAN_MOTION_DOT": "0.05054464",
    "MEAN_MOTION_DDOT": "0",
    "FILE": "33973",
    "TLE_LINE0": "0 DELTA 1 R/B",
    "TLE_LINE1": "1 00288U 62015  B 71117.88723462  .05054464 +00000-0 +00000-0 0  9997",
    "TLE_LINE2": "2 00288 053.7830 064.7962 0005680 045.2931 314.8538 16.27915800479879",
    "OBJECT_ID": "1962-015B",
    "OBJECT_NUMBER": "288",
    "SEMIMAJOR_AXIS": "6576.288",
    "PERIOD": "88.457",
    "APOGEE": "201.888",
    "PERIGEE": "194.418",
    "DECAYED": "1"
  }
]
